0 COSMOS 626
1 07005U 73108A   13282.13221829 -.00000078  00000-0  67124-5 0  1785
2 07005 065.4402 044.4293 0060095 219.8711 197.7004 13.85288867 12962
0 COSMOS 626
1 07005U 73108A   13283.14334568 -.00000086  00000-0 -31194-6 0  1792
2 07005 065.4404 041.8484 0060027 219.5019 200.1740 13.85288962 13109
0 COSMOS 626
1 07005U 73108A   13284.15289069 -.00000078  00000-0  63782-5 0  1808
2 07005 065.4406 039.2715 0059948 219.1299 194.7611 13.85289045 13248
0 COSMOS 626
1 07005U 73108A   13285.46607934 -.00000090  00000-0 -31735-5 0  1817
2 07005 065.4407 035.9196 0059856 218.6516 263.6091 13.85289010 13429
0 COSMOS 626
1 07005U 73108A   13286.47722978 -.00000075  00000-0  92044-5 0  1828
2 07005 065.4408 033.3387 0059777 218.2815 266.1999 13.85288964 13561
0 COSMOS 626
1 07005U 73108A   13287.48830753 -.00000062  00000-0  20531-4 0  1839
2 07005 065.4408 030.7580 0059703 217.9166 268.4237 13.85288848 13708
0 COSMOS 626
1 07005U 73108A   13288.48905207 -.00000045  00000-0  35825-4 0  1841
2 07005 065.4408 028.2037 0059627 217.5460 219.1250 13.85288856 13847
0 COSMOS 626
1 07005U 73108A   13289.51066681 -.00000036  00000-0  43437-4 0  1859
2 07005 065.4407 025.5961 0059544 217.1746 273.8982 13.85288940 13981
0 COSMOS 626
1 07005U 73108A   13290.58523550 -.00000036  00000-0  43306-4 0  1867
2 07005 065.4405 022.8534 0059460 216.7820 232.7538 13.85289014 14132
0 COSMOS 626
1 07005U 73108A   13291.67146654 -.00000047  00000-0  34101-4 0  1870
2 07005 065.4404 020.0809 0059382 216.3927 249.7622 13.85289057 14288
0 COSMOS 626
1 07005U 73108A   13292.69341922 -.00000052  00000-0  29206-4 0  1885
2 07005 065.4403 017.4724 0059302 216.0038 306.2385 13.85289235 14424
0 COSMOS 626
1 07005U 73108A   13293.77149586 -.00000058  00000-0  23886-4 0  1892
2 07005 065.4402 014.7206 0059221 215.6096 282.5889 13.85289467 14575
0 COSMOS 626
1 07005U 73108A   13294.78050806 -.00000055  00000-0  26511-4 0  1907
2 07005 065.4402 012.1451 0059141 215.2237 274.5348 13.85289641 14714
0 COSMOS 626
1 07005U 73108A   13295.79512296 -.00000064  00000-0  18668-4 0  1910
2 07005 065.4401 009.5554 0059069 214.8408 294.4163 13.85289674 14858
